NORAD_CAT_ID,OBJECT_NAME,OBJECT_TYPE,EPOCH,MEAN_MOTION,ECCENTRICITY,INCLINATION,RA_OF_ASC_NODE,ARG_OF_PERICENTER,MEAN_ANOMALY,BSTAR,MEAN_MOTION_DOT,MEAN_MOTION_DDOT,TLE_LINE0,TLE_LINE1,TLE_LINE2,SEMIMAJOR_AXIS,PERIOD,APOGEE,PERIGEE,DECAYED
49762.0,STARLINK-3195,PAYLOAD,2024-02-07 11:28:42,15.08834073,0.0001547,53.219,316.332,92.7519,267.365,9.8433e-06,-1.31e-06,0.0,0 STARLINK-3195,1 49762U 21115AQ  24038.47827159 -.00000131  00000-0  98433-5 0  9996,2 49762  53.2190 316.3320 0001547  92.7519 267.3650 15.08834073121875,6917.899,95.438,540.834,538.693,0.0
49762.0,STARLINK-3195,PAYLOAD,2024-02-08 01:47:09,15.08856467,0.0001283,53.2182,313.6566,99.6656,260.4482,6.3972e-05,7.31e-06,0.0,0 STARLINK-3195,1 49762U 21115AQ  24039.07441540  .00000731  00000-0  63972-4 0  9993,2 49762  53.2182 313.6566 0001283  99.6656 260.4482 15.08856467121961,6917.83,95.437,540.583,538.807,0.0
49762.0,STARLINK-3195,PAYLOAD,2024-02-08 22:27:11,15.08837121,0.0001592,53.2193,309.7877,97.4064,262.7109,9.9453e-05,1.295e-05,0.0,0 STARLINK-3195,1 49762U 21115AQ  24039.93555162  .00001295  00000-0  99453-4 0  9993,2 49762  53.2193 309.7877 0001592  97.4064 262.7109 15.08837121120984,6917.889,95.438,540.856,538.653,0.0
49762.0,STARLINK-3195,PAYLOAD,2024-02-09 03:13:20,15.08845508,0.000159,53.2177,308.8962,97.577,262.5403,0.00021312,3.106e-05,0.0,0 STARLINK-3195,1 49762U 21115AQ  24040.13426699  .00003106  00000-0  21312-3 0  9990,2 49762  53.2177 308.8962 0001590  97.5770 262.5403 15.08845508122125,6917.864,95.437,540.828,538.629,0.0
49762.0,STARLINK-3195,PAYLOAD,2024-02-09 17:31:49,15.08835838,0.0001555,53.2172,306.2193,100.4905,259.6263,6.3382e-05,7.21e-06,0.0,0 STARLINK-3195,1 49762U 21115AQ  24040.73043357  .00000721  00000-0  63382-4 0  9996,2 49762  53.2172 306.2193 0001555 100.4905 259.6263 15.08835838122219,6917.893,95.438,540.834,538.682,0.0
49762.0,STARLINK-3195,PAYLOAD,2024-02-10 03:04:07,15.08844695,0.0001538,53.2182,304.4374,105.0338,255.0824,8.355e-05,1.042e-05,0.0,0 STARLINK-3195,1 49762U 21115AQ  24041.12786873  .00001042  00000-0  83550-4 0  9993,2 49762  53.2182 304.4374 0001538 105.0338 255.0824 15.08844695122273,6917.866,95.437,540.795,538.667,0.0
49762.0,STARLINK-3195,PAYLOAD,2024-02-10 22:08:45,15.08850178,0.0001395,53.2174,300.8686,93.5063,266.6089,0.0001516,2.126e-05,0.0,0 STARLINK-3195,1 49762U 21115AQ  24041.92274849  .00002126  00000-0  15160-3 0  9991,2 49762  53.2174 300.8686 0001395  93.5063 266.6089 15.08850178121281,6917.849,95.437,540.679,538.749,0.0
49762.0,STARLINK-3195,PAYLOAD,2024-02-11 02:54:54,15.08857018,0.00015,53.2176,299.9752,111.4757,248.6395,0.00023688,3.486e-05,0.0,0 STARLINK-3195,1 49762U 21115AQ  24042.12146361  .00003486  00000-0  23688-3 0  9995,2 49762  53.2176 299.9752 0001500 111.4757 248.6395 15.08857018121317,6917.828,95.436,540.731,538.656,0.0
49762.0,STARLINK-3195,PAYLOAD,2024-02-11 20:24:09,15.08845451,0.0001474,53.2156,296.7027,120.2322,239.8816,0.00010946,1.455e-05,0.0,0 STARLINK-3195,1 49762U 21115AQ  24042.85010776  .00001455  00000-0  10946-3 0  9992,2 49762  53.2156 296.7027 0001474 120.2322 239.8816 15.08845451122534,6917.864,95.437,540.748,538.709,0.0
49762.0,STARLINK-3195,PAYLOAD,2024-02-11 21:59:32,15.0884491,0.0001473,53.216,296.4053,122.3948,237.7187,9.1784e-05,1.173e-05,0.0,0 STARLINK-3195,1 49762U 21115AQ  24042.91634715  .00001173  00000-0  91784-4 0  9991,2 49762  53.2160 296.4053 0001473 122.3948 237.7187 15.08844910121436,6917.865,95.437,540.749,538.711,0.0
49762.0,STARLINK-3195,PAYLOAD,2024-02-12 02:45:41,15.0884802,0.0001345,53.2175,295.515,98.7397,261.3747,0.00014564,2.031e-05,0.0,0 STARLINK-3195,1 49762U 21115AQ  24043.11506673  .00002031  00000-0  14564-3 0  9999,2 49762  53.2175 295.5150 0001345  98.7397 261.3747 15.08848020121466,6917.856,95.437,540.651,538.79,0.0
49762.0,STARLINK-3195,PAYLOAD,2024-02-12 20:14:57,15.08833801,0.0001385,53.2162,292.2373,113.3306,246.7832,-0.00012846,-2.331e-05,0.0,0 STARLINK-3195,1 49762U 21115AQ  24043.84371624 -.00002331  00000-0 -12846-3 0  9991,2 49762  53.2162 292.2373 0001385 113.3306 246.7832 15.08833801122689,6917.899,95.438,540.722,538.806,0.0
49762.0,STARLINK-3195,PAYLOAD,2024-02-12 21:50:20,15.08830174,0.0001327,53.2165,291.9429,97.0258,263.0885,-0.00012332,-2.249e-05,0.0,0 STARLINK-3195,1 49762U 21115AQ  24043.90995874 -.00002249  00000-0 -12332-3 0  9995,2 49762  53.2165 291.9429 0001327  97.0258 263.0885 15.08830174121588,6917.91,95.438,540.693,538.857,0.0
49762.0,STARLINK-3195,PAYLOAD,2024-02-13 08:58:02,15.0883831,0.0001318,53.2171,289.8675,96.1126,264.0016,-1.0251e-05,-4.51e-06,0.0,0 STARLINK-3195,1 49762U 21115AQ  24044.37363737 -.00000451  00000-0 -10251-4 0  9996,2 49762  53.2171 289.8675 0001318  96.1126 264.0016 15.08838310121653,6917.886,95.438,540.662,538.839,0.0
49762.0,STARLINK-3195,PAYLOAD,2024-02-13 20:05:44,15.08846882,0.000134,53.2166,287.7854,94.8073,265.3072,0.00035237,5.326e-05,0.0,0 STARLINK-3195,1 49762U 21115AQ  24044.83731816  .00005326  00000-0  35237-3 0  9998,2 49762  53.2166 287.7854 0001340  94.8073 265.3072 15.08846882122834,6917.859,95.437,540.651,538.797,0.0
49762.0,STARLINK-3195,PAYLOAD,2024-02-13 23:16:30,15.08857262,0.0001321,53.2161,287.1922,95.6888,264.4254,0.00090828,0.00014204,0.0,0 STARLINK-3195,1 49762U 21115AQ  24044.96979786  .00014204  00000-0  90828-3 0  9994,2 49762  53.2161 287.1922 0001321  95.6888 264.4254 15.08857262121746,6917.828,95.436,540.606,538.779,0.0
49762.0,STARLINK-3195,PAYLOAD,2024-02-14 00:51:53,15.08864119,0.000134,53.2164,286.8945,94.6491,265.4654,0.0011009,0.00017288,0.0,0 STARLINK-3195,1 49762U 21115AQ  24045.03603657  .00017288  00000-0  11009-2 0  9992,2 49762  53.2164 286.8945 0001340  94.6491 265.4654 15.08864119122868,6917.807,95.436,540.599,538.745,0.0
49762.0,STARLINK-3195,PAYLOAD,2024-02-14 08:48:49,15.08858136,0.0001149,53.2159,285.4067,86.3827,273.7297,0.00053376,8.221e-05,0.0,0 STARLINK-3195,1 49762U 21115AQ  24045.36723383  .00008221  00000-0  53376-3 0  9998,2 49762  53.2159 285.4067 0001149  86.3827 273.7297 15.08858136122913,6917.825,95.436,540.485,538.895,0.0
49762.0,STARLINK-3195,PAYLOAD,2024-02-14 21:31:54,15.08847439,0.0001569,53.2167,283.0285,82.1546,277.9624,7.7999e-05,9.54e-06,0.0,0 STARLINK-3195,1 49762U 21115AQ  24045.89715474  .00000954  00000-0  77999-4 0  9991,2 49762  53.2167 283.0285 0001569  82.1546 277.9624 15.08847439121885,6917.858,95.437,540.808,538.637,0.0
49762.0,STARLINK-3195,PAYLOAD,2024-02-15 00:42:40,15.08846998,0.0001557,53.2169,282.4364,92.9598,267.1572,0.00019156,2.763e-05,0.0,0 STARLINK-3195,1 49762U 21115AQ  24046.02963507  .00002763  00000-0  19156-3 0  9999,2 49762  53.2169 282.4364 0001557  92.9598 267.1572 15.08846998123010,6917.859,95.437,540.801,538.647,0.0
49762.0,STARLINK-3195,PAYLOAD,2024-02-15 19:47:18,15.08839761,0.0001974,53.2165,278.8681,131.3665,228.7497,-5.3245e-05,-1.136e-05,0.0,0 STARLINK-3195,1 49762U 21115AQ  24046.82451579 -.00001136  00000-0 -53245-4 0  9991,2 49762  53.2165 278.8681 0001974 131.3665 228.7497 15.08839761123135,6917.881,95.438,541.112,538.381,0.0
49762.0,STARLINK-3195,PAYLOAD,2024-02-15 21:22:41,15.08840279,0.0001814,53.2162,278.5674,131.5387,228.5761,-8.3188e-05,-1.612e-05,0.0,0 STARLINK-3195,1 49762U 21115AQ  24046.89075457 -.00001612  00000-0 -83188-4 0  9993,2 49762  53.2162 278.5674 0001814 131.5387 228.5761 15.08840279122033,6917.88,95.438,540.999,538.49,0.0
49762.0,STARLINK-3195,PAYLOAD,2024-02-16 14:51:56,15.08837493,0.0001433,53.2154,275.2971,81.2084,278.9071,0.00013696,1.892e-05,0.0,0 STARLINK-3195,1 49762U 21115AQ  24047.61940171  .00001892  00000-0  13696-3 0  9992,2 49762  53.2154 275.2971 0001433  81.2084 278.9071 15.08837493122149,6917.888,95.438,540.744,538.762,0.0
49762.0,STARLINK-3195,PAYLOAD,2024-02-16 19:38:05,15.08839563,0.0001409,53.2152,274.405,80.5459,279.5692,0.00017845,2.553e-05,0.0,0 STARLINK-3195,1 49762U 21115AQ  24047.81812154  .00002553  00000-0  17845-3 0  9998,2 49762  53.2152 274.4050 0001409  80.5459 279.5692 15.08839563123289,6917.882,95.438,540.721,538.772,0.0
49762.0,STARLINK-3195,PAYLOAD,2024-02-16 21:13:28,15.08841783,0.0001524,53.2158,274.1083,75.6993,284.4168,0.00015965,2.254e-05,0.0,0 STARLINK-3195,1 49762U 21115AQ  24047.88436133  .00002254  00000-0  15965-3 0  9993,2 49762  53.2158 274.1083 0001524  75.6993 284.4168 15.08841783122182,6917.875,95.437,540.794,538.686,0.0
49762.0,STARLINK-3195,PAYLOAD,2024-02-17 08:21:10,15.08843059,0.0001444,53.215,272.0252,82.8755,277.2402,0.00038948,5.917e-05,0.0,0 STARLINK-3195,1 49762U 21115AQ  24048.34804061  .00005917  00000-0  38948-3 0  9999,2 49762  53.2150 272.0252 0001444  82.8755 277.2402 15.08843059122253,6917.871,95.437,540.735,538.737,0.0
49762.0,STARLINK-3195,PAYLOAD,2024-02-17 21:04:15,15.08843893,0.0001401,53.2156,269.6456,89.9763,270.1389,0.00020069,2.908e-05,0.0,0 STARLINK-3195,1 49762U 21115AQ  24048.87796058  .00002908  00000-0  20069-3 0  9995,2 49762  53.2156 269.6456 0001401  89.9763 270.1389 15.08843893122338,6917.868,95.437,540.703,538.764,0.0
49762.0,STARLINK-3195,PAYLOAD,2024-02-18 08:11:57,15.08846034,0.0001371,53.2158,267.5641,88.962,271.1529,0.00020596,2.992e-05,0.0,0 STARLINK-3195,1 49762U 21115AQ  24049.34163929  .00002992  00000-0  20596-3 0  9991,2 49762  53.2158 267.5641 0001371  88.9620 271.1529 15.08846034122405,6917.862,95.437,540.675,538.779,0.0
49762.0,STARLINK-3195,PAYLOAD,2024-02-18 19:19:38,15.08860456,0.0001383,53.2157,265.4825,86.4717,273.6433,-0.00011488,-2.117e-05,0.0,0 STARLINK-3195,1 49762U 21115AQ  24049.80530826 -.00002117  00000-0 -11488-3 0  9997,2 49762  53.2157 265.4825 0001383  86.4717 273.6433 15.08860456123583,6917.818,95.436,540.64,538.726,0.0
49762.0,STARLINK-3195,PAYLOAD,2024-02-18 20:55:02,15.08853371,0.0001368,53.2157,265.185,91.2987,268.8162,0.00018983,2.736e-05,0.0,0 STARLINK-3195,1 49762U 21115AQ  24049.87155327  .00002736  00000-0  18983-3 0  9995,2 49762  53.2157 265.1850 0001368  91.2987 268.8162 15.08853371122485,6917.84,95.437,540.651,538.758,0.0
